[{"OBJECT_NAME":"GAOFEN-9 03","OBJECT_ID":"2020-039A","EPOCH":"2026-03-09T21:55:15.121344","MEAN_MOTION":15.30529116,"ECCENTRICITY":0.0013094,"INCLINATION":97.5219,"RA_OF_ASC_NODE":201.2158,"ARG_OF_PERICENTER":77.4533,"MEAN_ANOMALY":282.8172,"EPHEMERIS_TYPE":0,"CLASSIFICATION_TYPE":"U","NORAD_CAT_ID":45794,"ELEMENT_SET_NO":999,"REV_AT_EPOCH":31856,"BSTAR":0.00039258132,"MEAN_MOTION_DOT":0.00011544,"MEAN_MOTION_DDOT":0},{"OBJECT_NAME":"STARLINK-35379","OBJECT_ID":"2025-235AC","EPOCH":"2026-03-09T17:20:58.636896","MEAN_MOTION":15.30199465,"ECCENTRICITY":9.47e-5,"INCLINATION":53.1567,"RA_OF_ASC_NODE":245.3149,"ARG_OF_PERICENTER":82.2001,"MEAN_ANOMALY":277.9107,"EPHEMERIS_TYPE":0,"CLASSIFICATION_TYPE":"U","NORAD_CAT_ID":66084,"ELEMENT_SET_NO":999,"REV_AT_EPOCH":2292,"BSTAR":0.0008792672,"MEAN_MOTION_DOT":0.00025772,"MEAN_MOTION_DDOT":0}]
